{"fetched_at":"2026-07-21T07:07:06.600Z","source":"https://celestrak.org/NORAD/elements/gp.php?NAME=PLEIADES&FORMAT=JSON","constellation":"pleiades","records":[{"OBJECT_NAME":"PLEIADES 1A","OBJECT_ID":"2011-076F","EPOCH":"2026-07-20T22:56:53.157120","CLASSIFICATION_TYPE":"U","MEAN_MOTION":14.58548101,"ECCENTRICITY":0.00016043,"INCLINATION":98.1961,"RA_OF_ASC_NODE":276.6031,"ARG_OF_PERICENTER":77.3304,"MEAN_ANOMALY":35.1699,"EPHEMERIS_TYPE":0,"NORAD_CAT_ID":38012,"ELEMENT_SET_NO":999,"REV_AT_EPOCH":77691,"BSTAR":0.000011036602,"MEAN_MOTION_DOT":6e-8,"MEAN_MOTION_DDOT":0},{"OBJECT_NAME":"PLEIADES 1B","OBJECT_ID":"2012-068A","EPOCH":"2026-07-20T21:36:14.973984","CLASSIFICATION_TYPE":"U","MEAN_MOTION":14.58535158,"ECCENTRICITY":0.00014844,"INCLINATION":98.1931,"RA_OF_ASC_NODE":276.4852,"ARG_OF_PERICENTER":77.5676,"MEAN_ANOMALY":282.5689,"EPHEMERIS_TYPE":0,"NORAD_CAT_ID":39019,"ELEMENT_SET_NO":999,"REV_AT_EPOCH":72576,"BSTAR":-0.000013959085,"MEAN_MOTION_DOT":-0.00000111,"MEAN_MOTION_DDOT":0}]}
